{
  "norad_id": 66589,
  "name": "STARLINK-35447",
  "history": [
    {
      "epoch": "2026-03-28T21:33:06.679872",
      "apogee_km": 484.0091211653116,
      "perigee_km": 481.9750708335114,
      "latitude_deg": 42.22686084969342,
      "longitude_deg": -154.89257792010903,
      "semi_major_axis_km": 6861.129095999411,
      "eccentricity": 0.00014823,
      "inclination_deg": 43.0002,
      "raan_deg": 307.699,
      "arg_perigee_deg": 264.2872,
      "mean_anomaly_deg": 95.7811,
      "mean_motion_rev_day": 15.27599036
    }
  ]
}