{"fetched_at":"2026-03-29T16:36:15Z","count":15609,"tles":[{"name":"STARLINK-35447","line1":"1 66589U 25270B   26087.89799398  .00021851  00000+0  80076-3 0  9995","line2":"2 66589  43.0002 307.6990 0001482 264.2872  95.7811 15.27599036 20757","category":"Starlink"}]}